start=new Date('2022-05-04T00:00:00.000Z').valueOf();
sats=[{"EPOCH":"2022-05-03T20:54:24.044832","REF_FRAME":"TEME","MEAN_ANOMALY":"301.9583","OBJECT_NAME":"STARLINK-1173","GP_ID":"202632824","NORAD_CAT_ID":"45084","PERIAPSIS":"545.903","LAUNCH_DATE":"2020-01-29","DECAY_DATE":null,"OBJECT_TYPE":"PAYLOAD","FILE":"3427573","INCLINATION":"53.0560","TLE_LINE1":"1 45084U 20006AS  22123.87111163  .00001595  00000-0  12593-3 0  9990","BSTAR":"0.00012593000000","OBJECT_ID":"2020-006AS","MEAN_MOTION":"15.06403611","PERIOD":"95.592","SEMIMAJOR_AXIS":"6925.337","ELEMENT_SET_NO":"999","MEAN_MOTION_DOT":"0.00001595","REV_AT_EPOCH":"12513","APOAPSIS":"548.502","MEAN_ELEMENT_THEORY":"SGP4","RA_OF_ASC_NODE":"77.5861","CENTER_NAME":"EARTH","TLE_LINE2":"2 45084  53.0560  77.5861 0001877  58.1588 301.9583 15.06403611125132","RCS_SIZE":"LARGE","TIME_SYSTEM":"UTC","ARG_OF_PERICENTER":"58.1588","CLASSIFICATION_TYPE":"U","COUNTRY_CODE":"US","MEAN_MOTION_DDOT":"0.0000000000000","ECCENTRICITY":"0.00018770","SITE":"AFETR","EPHEMERIS_TYPE":"0"},{"MEAN_MOTION_DOT":"0.00001045","ELEMENT_SET_NO":"999","SEMIMAJOR_AXIS":"6925.373","MEAN_ELEMENT_THEORY":"SGP4","APOAPSIS":"548.479","RA_OF_ASC_NODE":"78.7808","TLE_LINE2":"2 45085  53.0558  78.7808 0001791  57.7242 302.3920 15.06391910125094","CENTER_NAME":"EARTH","REV_AT_EPOCH":"12509","RCS_SIZE":"LARGE","TIME_SYSTEM":"UTC","ARG_OF_PERICENTER":"57.7242","ECCENTRICITY":"0.00017910","SITE":"AFETR","EPHEMERIS_TYPE":"0","CLASSIFICATION_TYPE":"U","COUNTRY_CODE":"US","MEAN_MOTION_DDOT":"0.0000000000000","REF_FRAME":"TEME","EPOCH":"2022-05-03T14:26:56.840928","MEAN_ANOMALY":"302.3920","DECAY_DATE":null,"OBJECT_TYPE":"PAYLOAD","FILE":"3427573","INCLINATION":"53.0558","GP_ID":"202633075","OBJECT_NAME":"STARLINK-1179","NORAD_CAT_ID":"45085","LAUNCH_DATE":"2020-01-29","PERIAPSIS":"545.998","OBJECT_ID":"2020-006AT","BSTAR":"0.00008904200000","TLE_LINE1":"1 45085U 20006AT  22123.60204677  .00001045  00000-0  89042-4 0  9999","MEAN_MOTION":"15.06391910","PERIOD":"95.593"},{"BSTAR":"0.00113820000000","OBJECT_ID":"2020-006AU","TLE_LINE1":"1 45086U 20006AU  22123.23429608  .00020324  00000-0  11382-2 0  9993","PERIOD":"95.149","MEAN_MOTION":"15.13416800","REF_FRAME":"TEME","EPOCH":"2022-05-03T05:37:23.181312","MEAN_ANOMALY":"291.3457","OBJECT_TYPE":"PAYLOAD","FILE":"3427159","INCLINATION":"53.0006","DECAY_DATE":null,"OBJECT_NAME":"STARLINK-1181","GP_ID":"202597401","NORAD_CAT_ID":"45086","LAUNCH_DATE":"2020-01-29","PERIAPSIS":"524.144","ARG_OF_PERICENTER":"68.7789","RCS_SIZE":"LARGE","TIME_SYSTEM":"UTC","SITE":"AFETR","EPHEMERIS_TYPE":"0","ECCENTRICITY":"0.00023860","COUNTRY_CODE":"US","MEAN_MOTION_DDOT":"0.0000000000000","CLASSIFICATION_TYPE":"U","MEAN_MOTION_DOT":"0.00020324","ELEMENT_SET_NO":"999","SEMIMAJOR_AXIS":"6903.926","RA_OF_ASC_NODE":"73.1500","TLE_LINE2":"2 45086  53.0006  73.1500 0002386  68.7789 291.3457 15.13416800125029","CENTER_NAME":"EARTH","APOAPSIS":"527.438","MEAN_ELEMENT_THEORY":"SGP4","REV_AT_EPOCH":"12502"},{"OBJECT_TYPE":"PAYLOAD","FILE":"3427573","INCLINATION":"53.0548","DECAY_DATE":null,"GP_ID":"202631571","NORAD_CAT_ID":"45087","OBJECT_NAME":"STARLINK-1185","PERIAPSIS":"546.036","LAUNCH_DATE":"2020-01-29","REF_FRAME":"TEME","EPOCH":"2022-05-03T22:03:24.725088","MEAN_ANOMALY":"292.9947","PERIOD":"95.592","MEAN_MOTION":"15.06395001","BSTAR":"0.00013211000000","OBJECT_ID":"2020-006AV","TLE_LINE1":"1 45087U 20006AV  22123.91903617  .00001686  00000-0  13211-3 0  9990","RA_OF_ASC_NODE":"77.3573","TLE_LINE2":"2 45087  53.0548  77.3573 0001722  67.1224 292.9947 15.06395001125142","CENTER_NAME":"EARTH","APOAPSIS":"548.421","MEAN_ELEMENT_THEORY":"SGP4","REV_AT_EPOCH":"12514","ELEMENT_SET_NO":"999","MEAN_MOTION_DOT":"0.00001686","SEMIMAJOR_AXIS":"6925.364","SITE":"AFETR","EPHEMERIS_TYPE":"0","ECCENTRICITY":"0.00017220","MEAN_MOTION_DDOT":"0.0000000000000","COUNTRY_CODE":"US","CLASSIFICATION_TYPE":"U","ARG_OF_PERICENTER":"67.1224","RCS_SIZE":"LARGE","TIME_SYSTEM":"UTC"},{"REF_FRAME":"TEME","MEAN_ANOMALY":"300.1109","EPOCH":"2022-05-03T20:59:42.530784","FILE":"3427573","INCLINATION":"53.0545","OBJECT_TYPE":"PAYLOAD","DECAY_DATE":null,"LAUNCH_DATE":"2020-01-29","PERIAPSIS":"546.116","GP_ID":"202632325","NORAD_CAT_ID":"45088","OBJECT_NAME":"STARLINK-1183","OBJECT_ID":"2020-006AW","BSTAR":"0.00010610000000","TLE_LINE1":"1 45088U 20006AW  22123.87479781  .00001299  00000-0  10610-3 0  9996","PERIOD":"95.592","MEAN_MOTION":"15.06399011","MEAN_MOTION_DOT":"0.00001299","ELEMENT_SET_NO":"999","SEMIMAJOR_AXIS":"6925.352","TLE_LINE2":"2 45088  53.0545  77.5675 0001589  60.0038 300.1109 15.06399011125137","CENTER_NAME":"EARTH","RA_OF_ASC_NODE":"77.5675","APOAPSIS":"548.317","MEAN_ELEMENT_THEORY":"SGP4","REV_AT_EPOCH":"12513","ARG_OF_PERICENTER":"60.0038","TIME_SYSTEM":"UTC","RCS_SIZE":"LARGE","SITE":"AFETR","EPHEMERIS_TYPE":"0","ECCENTRICITY":"0.00015890","MEAN_MOTION_DDOT":"0.0000000000000","COUNTRY_CODE":"US","CLASSIFICATION_TYPE":"U"},{"MEAN_MOTION":"15.06397615","PERIOD":"95.592","TLE_LINE1":"1 45089U 20006AX  22123.87385721  .00001678  00000-0  13155-3 0  9995","BSTAR":"0.00013155000000","OBJECT_ID":"2020-006AX","PERIAPSIS":"546.111","LAUNCH_DATE":"2020-01-29","NORAD_CAT_ID":"45089","GP_ID":"202632576","OBJECT_NAME":"STARLINK-1136","DECAY_DATE":null,"FILE":"3427573","INCLINATION":"53.0575","OBJECT_TYPE":"PAYLOAD","REF_FRAME":"TEME","MEAN_ANOMALY":"291.0326","EPOCH":"2022-05-03T20:58:21.262944","CLASSIFICATION_TYPE":"U","MEAN_MOTION_DDOT":"0.0000000000000","COUNTRY_CODE":"US","ECCENTRICITY":"0.00016020","SITE":"AFETR","EPHEMERIS_TYPE":"0","TIME_SYSTEM":"UTC","RCS_SIZE":"LARGE","ARG_OF_PERICENTER":"69.0834","REV_AT_EPOCH":"12514","MEAN_ELEMENT_THEORY":"SGP4","APOAPSIS":"548.330","CENTER_NAME":"EARTH","TLE_LINE2":"2 45089  53.0575  77.5776 0001602  69.0834 291.0326 15.06397615125140","RA_OF_ASC_NODE":"77.5776","SEMIMAJOR_AXIS":"6925.356","ELEMENT_SET_NO":"999","MEAN_MOTION_DOT":"0.00001678"},{"OBJECT_TYPE":"PAYLOAD","FILE":"3427159","INCLINATION":"53.0555","DECAY_DATE":null,"GP_ID":"202597901","NORAD_CAT_ID":"45090","OBJECT_NAME":"STARLINK-1176","LAUNCH_DATE":"2020-01-29","PERIAPSIS":"546.192","MEAN_ANOMALY":"297.5738","REF_FRAME":"TEME","EPOCH":"2022-05-03T06:18:37.018944","PERIOD":"95.592","MEAN_MOTION":"15.06400340","BSTAR":"0.00017767000000","OBJECT_ID":"2020-006AY","TLE_LINE1":"1 45090U 20006AY  22123.26292846  .00002366  00000-0  17767-3 0  9993","RA_OF_ASC_NODE":"80.3134","CENTER_NAME":"EARTH","TLE_LINE2":"2 45090  53.0555  80.3134 0001473  62.5400 297.5738 15.06400340125040","APOAPSIS":"548.233","MEAN_ELEMENT_THEORY":"SGP4","REV_AT_EPOCH":"12504","MEAN_MOTION_DOT":"0.00002366","ELEMENT_SET_NO":"999","SEMIMAJOR_AXIS":"6925.348","SITE":"AFETR","EPHEMERIS_TYPE":"0","ECCENTRICITY":"0.00014730","COUNTRY_CODE":"US","MEAN_MOTION_DDOT":"0.0000000000000","CLASSIFICATION_TYPE":"U","ARG_OF_PERICENTER":"62.5400","RCS_SIZE":"LARGE","TIME_SYSTEM":"UTC"},{"TLE_LINE1":"1 45092U 20006BA  22123.90060828  .00006260  00000-0  43874-3 0  9994","BSTAR":"0.00043874000000","OBJECT_ID":"2020-006BA","PERIOD":"95.592","MEAN_MOTION":"15.06405077","REF_FRAME":"TEME","MEAN_ANOMALY":"301.2876","EPOCH":"2022-05-03T21:36:52.555392","PERIAPSIS":"545.988","LAUNCH_DATE":"2020-01-29","GP_ID":"202632071","NORAD_CAT_ID":"45092","OBJECT_NAME":"STARLINK-1137","FILE":"3427573","INCLINATION":"53.0549","OBJECT_TYPE":"PAYLOAD","DECAY_DATE":null,"ARG_OF_PERICENTER":"58.8284","TIME_SYSTEM":"UTC","RCS_SIZE":"LARGE","MEAN_MOTION_DDOT":"0.0000000000000","COUNTRY_CODE":"US","CLASSIFICATION_TYPE":"U","SITE":"AFETR","EPHEMERIS_TYPE":"0","ECCENTRICITY":"0.00017470","SEMIMAJOR_AXIS":"6925.333","MEAN_MOTION_DOT":"0.00006260","ELEMENT_SET_NO":"999","REV_AT_EPOCH":"12513","CENTER_NAME":"EARTH","TLE_LINE2":"2 45092  53.0549  77.4596 0001747  58.8284 301.2876 15.06405077125134","RA_OF_ASC_NODE":"77.4596","APOAPSIS":"548.408","MEAN_ELEMENT_THEORY":"SGP4"},{"REV_AT_EPOCH":"12513","APOAPSIS":"548.370","MEAN_ELEMENT_THEORY":"SGP4","RA_OF_ASC_NODE":"77.4701","CENTER_NAME":"EARTH","TLE_LINE2":"2 45093  53.0555  77.4701 0001723  52.1472 307.9673 15.06411885125132","SEMIMAJOR_AXIS":"6925.312","MEAN_MOTION_DOT":"-0.00006623","ELEMENT_SET_NO":"999","CLASSIFICATION_TYPE":"U","MEAN_MOTION_DDOT":"0.0000000000000","COUNTRY_CODE":"US","ECCENTRICITY":"0.00017230","SITE":"AFETR","EPHEMERIS_TYPE":"0","RCS_SIZE":"LARGE","TIME_SYSTEM":"UTC","ARG_OF_PERICENTER":"52.1472","NORAD_CAT_ID":"45093","GP_ID":"202632825","OBJECT_NAME":"STARLINK-1142","PERIAPSIS":"545.984","LAUNCH_DATE":"2020-01-29","DECAY_DATE":null,"OBJECT_TYPE":"PAYLOAD","FILE":"3427573","INCLINATION":"53.0555","EPOCH":"2022-05-03T21:31:34.593888","REF_FRAME":"TEME","MEAN_ANOMALY":"307.9673","MEAN_MOTION":"15.06411885","PERIOD":"95.591","TLE_LINE1":"1 45093U 20006BB  22123.89692817 -.00006623  00000-0 -42596-3 0  9997","BSTAR":"-0.00042596000000","OBJECT_ID":"2020-006BB"},{"SEMIMAJOR_AXIS":"6925.389","MEAN_MOTION_DOT":"-0.00000017","ELEMENT_SET_NO":"999","REV_AT_EPOCH":"12509","RA_OF_ASC_NODE":"78.8908","TLE_LINE2":"2 45094  53.0547  78.8908 0001560  57.3229 302.7910 15.06386714125098","CENTER_NAME":"EARTH","APOAPSIS":"548.335","MEAN_ELEMENT_THEORY":"SGP4","ARG_OF_PERICENTER":"57.3229","RCS_SIZE":"LARGE","TIME_SYSTEM":"UTC","COUNTRY_CODE":"US","MEAN_MOTION_DDOT":"0.0000000000000","CLASSIFICATION_TYPE":"U","SITE":"AFETR","EPHEMERIS_TYPE":"0","ECCENTRICITY":"0.00015600","MEAN_ANOMALY":"302.7910","REF_FRAME":"TEME","EPOCH":"2022-05-03T13:55:06.580128","GP_ID":"202597152","OBJECT_NAME":"STARLINK-1146","NORAD_CAT_ID":"45094","LAUNCH_DATE":"2020-01-29","PERIAPSIS":"546.174","OBJECT_TYPE":"PAYLOAD","FILE":"3427159","INCLINATION":"53.0547","DECAY_DATE":null,"TLE_LINE1":"1 45094U 20006BC  22123.57993727 -.00000017  00000-0  17755-4 0  9997","OBJECT_ID":"2020-006BC","BSTAR":"0.00001775500000","PERIOD":"95.593","MEAN_MOTION":"15.06386714"}];
